STARLINK-2022           
1 47643U 21012Z   24207.27452562  .00001307  00000+0  10659-3 0  9992
2 47643  53.0538 191.0726 0001371  93.4078 266.7067 15.06405340190977
